start=new Date('2023-02-17T00:00:00.000Z').valueOf();
sats=[{"COUNTRY_CODE":"US","MEAN_ANOMALY":"91.3672","CLASSIFICATION_TYPE":"U","ECCENTRICITY":"0.00028290","RA_OF_ASC_NODE":"230.2758","MEAN_MOTION":"14.98311784","GP_ID":"225683719","EPOCH":"2023-02-16T21:31:32.407968","CENTER_NAME":"EARTH","REF_FRAME":"TEME","BSTAR":"-0.00013727000000","MEAN_MOTION_DDOT":"0.0000000000000","FILE":"3799178","PERIAPSIS":"570.148","SITE":"AFWTR","TLE_LINE2":"2 49171  70.0005 230.2758 0002829 268.7162  91.3672 14.98311784 79859","MEAN_MOTION_DOT":"-0.00001730","OBJECT_ID":"2021-082AT","REV_AT_EPOCH":"7985","OBJECT_NAME":"STARLINK-3107","TIME_SYSTEM":"UTC","ELEMENT_SET_NO":"999","RCS_SIZE":"LARGE","OBJECT_TYPE":"PAYLOAD","DECAY_DATE":null,"ARG_OF_PERICENTER":"268.7162","INCLINATION":"70.0005","NORAD_CAT_ID":"49171","SEMIMAJOR_AXIS":"6950.249","MEAN_ELEMENT_THEORY":"SGP4","TLE_LINE1":"1 49171U 21082AT  23047.89690287 -.00001730  00000-0 -13727-3 0  9996","LAUNCH_DATE":"2021-09-14","EPHEMERIS_TYPE":"0","APOAPSIS":"574.080","PERIOD":"96.108"},{"PERIAPSIS":"569.930","SITE":"AFWTR","REF_FRAME":"TEME","MEAN_MOTION_DDOT":"0.0000000000000","BSTAR":"0.00001858100000","FILE":"3799178","ECCENTRICITY":"0.00030710","CLASSIFICATION_TYPE":"U","MEAN_ANOMALY":"89.8754","RA_OF_ASC_NODE":"210.7593","GP_ID":"225684470","MEAN_MOTION":"14.98327787","EPOCH":"2023-02-16T16:58:45.141888","CENTER_NAME":"EARTH","COUNTRY_CODE":"US","TLE_LINE1":"1 49172U 21082AU  23047.70746692  .00000129  00000-0  18581-4 0  9992","LAUNCH_DATE":"2021-09-14","EPHEMERIS_TYPE":"0","PERIOD":"96.107","APOAPSIS":"574.199","INCLINATION":"69.9993","ARG_OF_PERICENTER":"270.2053","NORAD_CAT_ID":"49172","SEMIMAJOR_AXIS":"6950.200","MEAN_ELEMENT_THEORY":"SGP4","ELEMENT_SET_NO":"999","TIME_SYSTEM":"UTC","RCS_SIZE":"LARGE","OBJECT_TYPE":"PAYLOAD","DECAY_DATE":null,"MEAN_MOTION_DOT":"0.00000129","TLE_LINE2":"2 49172  69.9993 210.7593 0003071 270.2053  89.8754 14.98327787 79156","OBJECT_ID":"2021-082AU","REV_AT_EPOCH":"7915","OBJECT_NAME":"STARLINK-3091"},{"PERIAPSIS":"569.901","SITE":"AFWTR","REF_FRAME":"TEME","MEAN_MOTION_DDOT":"0.0000000000000","BSTAR":"0.00012707000000","FILE":"3799178","CLASSIFICATION_TYPE":"U","ECCENTRICITY":"0.00030690","MEAN_ANOMALY":"89.8851","RA_OF_ASC_NODE":"210.3756","GP_ID":"225684721","MEAN_MOTION":"14.98337825","CENTER_NAME":"EARTH","EPOCH":"2023-02-16T20:41:25.740672","COUNTRY_CODE":"US","TLE_LINE1":"1 49173U 21082AV  23047.86210348  .00001424  00000-0  12707-3 0  9996","LAUNCH_DATE":"2021-09-14","EPHEMERIS_TYPE":"0","PERIOD":"96.106","APOAPSIS":"574.167","ARG_OF_PERICENTER":"270.1956","INCLINATION":"69.9990","NORAD_CAT_ID":"49173","SEMIMAJOR_AXIS":"6950.169","MEAN_ELEMENT_THEORY":"SGP4","ELEMENT_SET_NO":"999","TIME_SYSTEM":"UTC","RCS_SIZE":"LARGE","OBJECT_TYPE":"PAYLOAD","DECAY_DATE":null,"MEAN_MOTION_DOT":"0.00001424","TLE_LINE2":"2 49173  69.9990 210.3756 0003069 270.1956  89.8851 14.98337825 79184","OBJECT_ID":"2021-082AV","OBJECT_NAME":"STARLINK-3045","REV_AT_EPOCH":"7918"},{"FILE":"3798293","REF_FRAME":"TEME","BSTAR":"0.00084740000000","MEAN_MOTION_DDOT":"0.0000000000000","PERIAPSIS":"566.219","SITE":"AFWTR","COUNTRY_CODE":"US","MEAN_MOTION":"14.99258830","GP_ID":"225638952","CENTER_NAME":"EARTH","EPOCH":"2023-02-16T13:09:00.360576","MEAN_ANOMALY":"103.2907","CLASSIFICATION_TYPE":"U","ECCENTRICITY":"0.00042720","RA_OF_ASC_NODE":"211.2595","MEAN_ELEMENT_THEORY":"SGP4","SEMIMAJOR_AXIS":"6947.322","NORAD_CAT_ID":"49174","INCLINATION":"69.9968","ARG_OF_PERICENTER":"256.7776","EPHEMERIS_TYPE":"0","APOAPSIS":"572.155","PERIOD":"96.047","TLE_LINE1":"1 49174U 21082AW  23047.54792084  .00010280  00000-0  84740-3 0  9990","LAUNCH_DATE":"2021-09-14","OBJECT_ID":"2021-082AW","OBJECT_NAME":"STARLINK-3047","REV_AT_EPOCH":"8030","TLE_LINE2":"2 49174  69.9968 211.2595 0004272 256.7776 103.2907 14.99258830 80306","MEAN_MOTION_DOT":"0.00010280","OBJECT_TYPE":"PAYLOAD","DECAY_DATE":null,"TIME_SYSTEM":"UTC","ELEMENT_SET_NO":"999","RCS_SIZE":"LARGE"},{"REF_FRAME":"TEME","BSTAR":"0.00014403000000","MEAN_MOTION_DDOT":"0.0000000000000","FILE":"3799178","PERIAPSIS":"569.727","SITE":"AFWTR","COUNTRY_CODE":"US","MEAN_ANOMALY":"88.7361","CLASSIFICATION_TYPE":"U","ECCENTRICITY":"0.00033040","RA_OF_ASC_NODE":"210.3061","MEAN_MOTION":"14.98341218","GP_ID":"225684220","EPOCH":"2023-02-16T21:19:40.254240","CENTER_NAME":"EARTH","ARG_OF_PERICENTER":"271.3420","INCLINATION":"69.9989","SEMIMAJOR_AXIS":"6950.158","MEAN_ELEMENT_THEORY":"SGP4","NORAD_CAT_ID":"49175","TLE_LINE1":"1 49175U 21082AX  23047.88866035  .00001626  00000-0  14403-3 0  9999","LAUNCH_DATE":"2021-09-14","EPHEMERIS_TYPE":"0","APOAPSIS":"574.320","PERIOD":"96.106","TLE_LINE2":"2 49175  69.9989 210.3061 0003304 271.3420  88.7361 14.98341218 79189","MEAN_MOTION_DOT":"0.00001626","OBJECT_ID":"2021-082AX","OBJECT_NAME":"STARLINK-3087","REV_AT_EPOCH":"7918","TIME_SYSTEM":"UTC","ELEMENT_SET_NO":"999","RCS_SIZE":"LARGE","OBJECT_TYPE":"PAYLOAD","DECAY_DATE":null},{"PERIAPSIS":"569.759","SITE":"AFWTR","REF_FRAME":"TEME","BSTAR":"0.00028352000000","MEAN_MOTION_DDOT":"0.0000000000000","FILE":"3799178","MEAN_ANOMALY":"87.8509","CLASSIFICATION_TYPE":"U","ECCENTRICITY":"0.00032490","RA_OF_ASC_NODE":"190.8442","MEAN_MOTION":"14.98343338","GP_ID":"225683970","CENTER_NAME":"EARTH","EPOCH":"2023-02-16T16:15:31.839840","COUNTRY_CODE":"US","TLE_LINE1":"1 49176U 21082AY  23047.67745185  .00003293  00000-0  28352-3 0  9999","LAUNCH_DATE":"2021-09-14","EPHEMERIS_TYPE":"0","APOAPSIS":"574.275","PERIOD":"96.106","INCLINATION":"69.9981","ARG_OF_PERICENTER":"272.2278","SEMIMAJOR_AXIS":"6950.152","NORAD_CAT_ID":"49176","MEAN_ELEMENT_THEORY":"SGP4","TIME_SYSTEM":"UTC","ELEMENT_SET_NO":"999","RCS_SIZE":"LARGE","OBJECT_TYPE":"PAYLOAD","DECAY_DATE":null,"TLE_LINE2":"2 49176  69.9981 190.8442 0003249 272.2278  87.8509 14.98343338 79646","MEAN_MOTION_DOT":"0.00003293","OBJECT_ID":"2021-082AY","REV_AT_EPOCH":"7964","OBJECT_NAME":"STARLINK-3069"},{"OBJECT_NAME":"STARLINK-3103","REV_AT_EPOCH":"8086","OBJECT_ID":"2021-082AZ","MEAN_MOTION_DOT":"0.00006058","TLE_LINE2":"2 49177  69.9987 190.4559 0002814 270.9772  89.1065 14.98322263 80861","DECAY_DATE":null,"OBJECT_TYPE":"PAYLOAD","RCS_SIZE":"LARGE","ELEMENT_SET_NO":"999","TIME_SYSTEM":"UTC","NORAD_CAT_ID":"49177","SEMIMAJOR_AXIS":"6950.217","MEAN_ELEMENT_THEORY":"SGP4","ARG_OF_PERICENTER":"270.9772","INCLINATION":"69.9987","PERIOD":"96.107","APOAPSIS":"574.038","EPHEMERIS_TYPE":"0","LAUNCH_DATE":"2021-09-14","TLE_LINE1":"1 49177U 21082AZ  23047.83004749  .00006058  00000-0  51516-3 0  9992","COUNTRY_CODE":"US","CENTER_NAME":"EARTH","EPOCH":"2023-02-16T19:55:16.103136","GP_ID":"225685222","MEAN_MOTION":"14.98322263","RA_OF_ASC_NODE":"190.4559","CLASSIFICATION_TYPE":"U","ECCENTRICITY":"0.00028140","MEAN_ANOMALY":"89.1065","FILE":"3799178","MEAN_MOTION_DDOT":"0.0000000000000","BSTAR":"0.00051516000000","REF_FRAME":"TEME","SITE":"AFWTR","PERIAPSIS":"570.126"},{"SITE":"AFWTR","PERIAPSIS":"569.961","FILE":"3799178","BSTAR":"0.00007116100000","MEAN_MOTION_DDOT":"0.0000000000000","REF_FRAME":"TEME","CENTER_NAME":"EARTH","EPOCH":"2023-02-16T22:12:42.519168","MEAN_MOTION":"14.98335472","GP_ID":"225684970","RA_OF_ASC_NODE":"230.2140","MEAN_ANOMALY":"89.5401","ECCENTRICITY":"0.00029930","CLASSIFICATION_TYPE":"U","COUNTRY_CODE":"US","APOAPSIS":"574.121","PERIOD":"96.107","EPHEMERIS_TYPE":"0","LAUNCH_DATE":"2021-09-14","TLE_LINE1":"1 49178U 21082BA  23047.92549212  .00000756  00000-0  71161-4 0  9990","SEMIMAJOR_AXIS":"6950.176","MEAN_ELEMENT_THEORY":"SGP4","NORAD_CAT_ID":"49178","INCLINATION":"69.9981","ARG_OF_PERICENTER":"270.5415","DECAY_DATE":null,"OBJECT_TYPE":"PAYLOAD","RCS_SIZE":"LARGE","TIME_SYSTEM":"UTC","ELEMENT_SET_NO":"999","OBJECT_NAME":"STARLINK-3086","REV_AT_EPOCH":"7985","OBJECT_ID":"2021-082BA","TLE_LINE2":"2 49178  69.9981 230.2140 0002993 270.5415  89.5401 14.98335472 79854","MEAN_MOTION_DOT":"0.00000756"},{"OBJECT_ID":"2021-082BB","OBJECT_NAME":"STARLINK-3043","REV_AT_EPOCH":"7966","MEAN_MOTION_DOT":"0.00002289","TLE_LINE2":"2 49179  69.9991 190.4799 0003286 271.1552  88.9231 14.98341141 79661","OBJECT_TYPE":"PAYLOAD","DECAY_DATE":null,"ELEMENT_SET_NO":"999","TIME_SYSTEM":"UTC","RCS_SIZE":"LARGE","SEMIMAJOR_AXIS":"6950.158","NORAD_CAT_ID":"49179","MEAN_ELEMENT_THEORY":"SGP4","INCLINATION":"69.9991","ARG_OF_PERICENTER":"271.1552","EPHEMERIS_TYPE":"0","PERIOD":"96.106","APOAPSIS":"574.307","TLE_LINE1":"1 49179U 21082BB  23047.82051193  .00002289  00000-0  19953-3 0  9999","LAUNCH_DATE":"2021-09-14","COUNTRY_CODE":"US","GP_ID":"225683720","MEAN_MOTION":"14.98341141","CENTER_NAME":"EARTH","EPOCH":"2023-02-16T19:41:32.230752","CLASSIFICATION_TYPE":"U","ECCENTRICITY":"0.00032860","MEAN_ANOMALY":"88.9231","RA_OF_ASC_NODE":"190.4799","FILE":"3799178","REF_FRAME":"TEME","MEAN_MOTION_DDOT":"0.0000000000000","BSTAR":"0.00019953000000","PERIAPSIS":"569.740","SITE":"AFWTR"},{"COUNTRY_CODE":"US","EPOCH":"2023-02-16T20:52:12.366048","CENTER_NAME":"EARTH","MEAN_MOTION":"14.98332968","GP_ID":"225684471","RA_OF_ASC_NODE":"210.3562","MEAN_ANOMALY":"91.0597","ECCENTRICITY":"0.00029480","CLASSIFICATION_TYPE":"U","FILE":"3799178","BSTAR":"0.00027280000000","MEAN_MOTION_DDOT":"0.0000000000000","REF_FRAME":"TEME","SITE":"AFWTR","PERIAPSIS":"570.000","OBJECT_NAME":"STARLINK-3050","REV_AT_EPOCH":"8035","OBJECT_ID":"2021-082BC","TLE_LINE2":"2 49180  69.9987 210.3562 0002948 269.0224  91.0597 14.98332968 80359","MEAN_MOTION_DOT":"0.00003164","DECAY_DATE":null,"OBJECT_TYPE":"PAYLOAD","RCS_SIZE":"LARGE","TIME_SYSTEM":"UTC","ELEMENT_SET_NO":"999","NORAD_CAT_ID":"49180","SEMIMAJOR_AXIS":"6950.184","MEAN_ELEMENT_THEORY":"SGP4","INCLINATION":"69.9987","ARG_OF_PERICENTER":"269.0224","APOAPSIS":"574.098","PERIOD":"96.107","EPHEMERIS_TYPE":"0","LAUNCH_DATE":"2021-09-14","TLE_LINE1":"1 49180U 21082BC  23047.86958757  .00003164  00000-0  27280-3 0  9992"}];
